XRISM                   
1 57800U 23137A   26069.82928417  .00006101  00000+0  34560-3 0  9998
2 57800  31.0015 276.2923 0007859  50.5132 309.6200 15.11516802137964
ACS3                    
1 59588U 24077B   26069.79404038  .00014141  00000+0  11379-1 0  9995
2 59588  97.2064  10.6574 0060403  73.9398 286.8406 13.89639166 94357
SZ-21 MODULE            
1 66515U 25246C   26069.39180921  .00046134  00000+0  39495-3 0  9998
2 66515  41.4733 199.0379 0001321 300.4317  59.6394 15.68612654 18188
